[{"OBJECT_NAME":"HAWK-C","OBJECT_ID":"2018-099AT","EPOCH":"2026-03-09T16:08:34.251360","MEAN_MOTION":15.26407167,"ECCENTRICITY":0.00403625,"INCLINATION":97.4027,"RA_OF_ASC_NODE":122.6817,"ARG_OF_PERICENTER":277.4052,"MEAN_ANOMALY":82.2601,"EPHEMERIS_TYPE":0,"CLASSIFICATION_TYPE":"U","NORAD_CAT_ID":43799,"ELEMENT_SET_NO":999,"REV_AT_EPOCH":39872,"BSTAR":0.00035662773,"MEAN_MOTION_DOT":9.431e-5,"MEAN_MOTION_DDOT":0},{"OBJECT_NAME":"STARLINK-32488","OBJECT_ID":"2024-222M","EPOCH":"2026-03-09T13:12:31.929984","MEAN_MOTION":15.27583991,"ECCENTRICITY":0.0002541,"INCLINATION":43.001,"RA_OF_ASC_NODE":137.316,"ARG_OF_PERICENTER":283.8149,"MEAN_ANOMALY":76.242,"EPHEMERIS_TYPE":0,"CLASSIFICATION_TYPE":"U","NORAD_CAT_ID":62125,"ELEMENT_SET_NO":999,"REV_AT_EPOCH":7262,"BSTAR":0.00074784,"MEAN_MOTION_DOT":0.00020377,"MEAN_MOTION_DDOT":0}]
